{"type": "FeatureCollection", "features": [{"type": "Feature", "properties": {"norad_id": 22490, "name": "SCD 1", "group": "resource", "lat": 19.509092065439397, "lon": -4.364847650870991, "alt_km": 724.0244864104197, "timestamp": "2025-12-21T09:37:22.304715+00:00", "meta": {"OBJECT_NAME": "SCD 1", "OBJECT_ID": "1993-009B", "EPOCH": "2025-12-20T20:00:20.608704", "MEAN_MOTION": 14.46004096, "ECCENTRICITY": 0.0042122, "INCLINATION": 24.9682, "RA_OF_ASC_NODE": 228.7229, "ARG_OF_PERICENTER": 50.6528, "MEAN_ANOMALY": 356.9599, "EPHEMERIS_TYPE": 0, "CLASSIFICATION_TYPE": "U", "NORAD_CAT_ID": 22490, "ELEMENT_SET_NO": 999, "REV_AT_EPOCH": 73527, "BSTAR": 6.2642e-05, "MEAN_MOTION_DOT": 4.14e-06, "MEAN_MOTION_DDOT": 0}, "tle": {"line1": "1 22490U 93009B   25354.83357186  .00000414  00000+0  62642-4 0  9990", "line2": "2 22490  24.9682 228.7229 0042122  50.6528 356.9599 14.46004096735273"}}, "geometry": {"type": "Point", "coordinates": [-4.364847650870991, 19.509092065439397]}}, {"type": "Feature", "properties": {"norad_id": 25397, "name": "TECHSAT 1B (GO-32)", "group": "resource", "lat": -78.74620874059217, "lon": 31.5468018153805, "alt_km": 818.6506927190967, "timestamp": "2025-12-21T09:37:22.304744+00:00", "meta": {"OBJECT_NAME": "TECHSAT 1B (GO-32)", "OBJECT_ID": "1998-043D", "EPOCH": "2025-12-20T12:05:47.212224", "MEAN_MOTION": 14.24379082, "ECCENTRICITY": 0.0001814, "INCLINATION": 98.9927, "RA_OF_ASC_NODE": 337.8955, "ARG_OF_PERICENTER": 45.0313, "MEAN_ANOMALY": 315.1012, "EPHEMERIS_TYPE": 0, "CLASSIFICATION_TYPE": "U", "NORAD_CAT_ID": 25397, "ELEMENT_SET_NO": 999, "REV_AT_EPOCH": 42589, "BSTAR": 3.7448e-05, "MEAN_MOTION_DOT": 4e-07, "MEAN_MOTION_DDOT": 0}, "tle": {"line1": "1 25397U 98043D   25354.50401866  .00000040  00000+0  37448-4 0  9992", "line2": "2 25397  98.9927 337.8955 0001814  45.0313 315.1012 14.24379082425893"}}, "geometry": {"type": "Point", "coordinates": [31.5468018153805, -78.74620874059217]}}, {"type": "Feature", "properties": {"norad_id": 25504, "name": "SCD 2", "group": "resource", "lat": 15.28521140677442, "lon": -127.42431903190032, "alt_km": 737.7339708673962, "timestamp": "2025-12-21T09:37:22.304759+00:00", "meta": {"OBJECT_NAME": "SCD 2", "OBJECT_ID": "1998-060A", "EPOCH": "2025-12-20T14:51:05.311008", "MEAN_MOTION": 14.45427239, "ECCENTRICITY": 0.0016975, "INCLINATION": 24.9946, "RA_OF_ASC_NODE": 93.3121, "ARG_OF_PERICENTER": 36.8974, "MEAN_ANOMALY": 346.0798, "EPHEMERIS_TYPE": 0, "CLASSIFICATION_TYPE": "U", "NORAD_CAT_ID": 25504, "ELEMENT_SET_NO": 999, "REV_AT_EPOCH": 43446, "BSTAR": 4.6833e-05, "MEAN_MOTION_DOT": 3.49e-06, "MEAN_MOTION_DDOT": 0}, "tle": {"line1": "1 25504U 98060A   25354.61881147  .00000349  00000+0  46833-4 0  9997", "line2": "2 25504  24.9946  93.3121 0016975  36.8974 346.0798 14.45427239434465"}}, "geometry": {"type": "Point", "coordinates": [-127.42431903190032, 15.28521140677442]}}, {"type": "Feature", "properties": {"norad_id": 25757, "name": "DLR-TUBSAT", "group": "resource", "lat": -71.62065311587202, "lon": 7.47376875146646, "alt_km": 730.2637215920586, "timestamp": "2025-12-21T09:37:22.304773+00:00", "meta": {"OBJECT_NAME": "DLR-TUBSAT", "OBJECT_ID": "1999-029B", "EPOCH": "2025-12-17T13:22:10.787520", "MEAN_MOTION": 14.52359578, "ECCENTRICITY": 0.00141996, "INCLINATION": 98.6566, "RA_OF_ASC_NODE": 336.2196, "ARG_OF_PERICENTER": 177.8976, "MEAN_ANOMALY": 182.2281, "EPHEMERIS_TYPE": 0, "CLASSIFICATION_TYPE": "U", "NORAD_CAT_ID": 25757, "ELEMENT_SET_NO": 999, "REV_AT_EPOCH": 40688, "BSTAR": 3.7650132e-05, "MEAN_MOTION_DOT": 1.05e-06, "MEAN_MOTION_DDOT": 0}, "tle": {"line1": "1 25757U 99029B   25351.55706930  .00000105  00000+0  37650-4 0  9996", "line2": "2 25757  98.6566 336.2196 0014199 177.8976 182.2281 14.52359578406886"}}, "geometry": {"type": "Point", "coordinates": [7.47376875146646, -71.62065311587202]}}, {"type": "Feature", "properties": {"norad_id": 25994, "name": "TERRA", "group": "resource", "lat": -73.09275680970485, "lon": -160.6925501092818, "alt_km": 700.029577311042, "timestamp": "2025-12-21T09:37:22.304785+00:00", "meta": {"OBJECT_NAME": "TERRA", "OBJECT_ID": "1999-068A", "EPOCH": "2025-12-21T03:35:17.460096", "MEAN_MOTION": 14.60910409, "ECCENTRICITY": 0.000352, "INCLINATION": 97.9736, "RA_OF_ASC_NODE": 46.5249, "ARG_OF_PERICENTER": 77.7738, "MEAN_ANOMALY": 295.6069, "EPHEMERIS_TYPE": 0, "CLASSIFICATION_TYPE": "U", "NORAD_CAT_ID": 25994, "ELEMENT_SET_NO": 999, "REV_AT_EPOCH": 38361, "BSTAR": 7.6173e-05, "MEAN_MOTION_DOT": 3.28e-06, "MEAN_MOTION_DDOT": 0}, "tle": {"line1": "1 25994U 99068A   25355.14950764  .00000328  00000+0  76173-4 0  9997", "line2": "2 25994  97.9736  46.5249 0003520  77.7738 295.6069 14.60910409383613"}}, "geometry": {"type": "Point", "coordinates": [-160.6925501092818, -73.09275680970485]}}, {"type": "Feature", "properties": {"norad_id": 27004, "name": "MAROC-TUBSAT", "group": "resource", "lat": -56.3851698743301, "lon": 179.05334853330004, "alt_km": 999.6783304650226, "timestamp": "2025-12-21T09:37:22.304798+00:00", "meta": {"OBJECT_NAME": "MAROC-TUBSAT", "OBJECT_ID": "2001-056D", "EPOCH": "2025-12-21T01:41:16.893888", "MEAN_MOTION": 13.70253304, "ECCENTRICITY": 0.0019186, "INCLINATION": 99.7915, "RA_OF_ASC_NODE": 163.6612, "ARG_OF_PERICENTER": 238.0257, "MEAN_ANOMALY": 234.0946, "EPHEMERIS_TYPE": 0, "CLASSIFICATION_TYPE": "U", "NORAD_CAT_ID": 27004, "ELEMENT_SET_NO": 999, "REV_AT_EPOCH": 20179, "BSTAR": 1.6454e-05, "MEAN_MOTION_DOT": -3.2e-07, "MEAN_MOTION_DDOT": 0}, "tle": {"line1": "1 27004U 01056D   25355.07033442 -.00000032  00000+0  16454-4 0  9997", "line2": "2 27004  99.7915 163.6612 0019186 238.0257 234.0946 13.70253304201797"}}, "geometry": {"type": "Point", "coordinates": [179.05334853330004, -56.3851698743301]}}, {"type": "Feature", "properties": {"norad_id": 27424, "name": "AQUA", "group": "resource", "lat": 20.852322567677756, "lon": 139.6495313170062, "alt_km": 686.5774759343694, "timestamp": "2025-12-21T09:37:22.304809+00:00", "meta": {"OBJECT_NAME": "AQUA", "OBJECT_ID": "2002-022A", "EPOCH": "2025-12-20T21:44:41.124192", "MEAN_MOTION": 14.61819722, "ECCENTRICITY": 0.0001418, "INCLINATION": 98.4047, "RA_OF_ASC_NODE": 315.9181, "ARG_OF_PERICENTER": 110.6839, "MEAN_ANOMALY": 325.0971, "EPHEMERIS_TYPE": 0, "CLASSIFICATION_TYPE": "U", "NORAD_CAT_ID": 27424, "ELEMENT_SET_NO": 999, "REV_AT_EPOCH": 25722, "BSTAR": 0.00013306, "MEAN_MOTION_DOT": 6.15e-06, "MEAN_MOTION_DDOT": 0}, "tle": {"line1": "1 27424U 02022A   25354.90603153  .00000615  00000+0  13306-3 0  9998", "line2": "2 27424  98.4047 315.9181 0001418 110.6839 325.0971 14.61819722257229"}}, "geometry": {"type": "Point", "coordinates": [139.6495313170062, 20.852322567677756]}}, {"type": "Feature", "properties": {"norad_id": 28051, "name": "IRS-P6 (RESOURCESAT-1)", "group": "resource", "lat": -57.182331052762066, "lon": 48.354383988946445, "alt_km": 817.3538988558466, "timestamp": "2025-12-21T09:37:22.304820+00:00", "meta": {"OBJECT_NAME": "IRS-P6 (RESOURCESAT-1)", "OBJECT_ID": "2003-046A", "EPOCH": "2025-12-21T05:14:22.060032", "MEAN_MOTION": 14.36078022, "ECCENTRICITY": 0.0064712, "INCLINATION": 98.2168, "RA_OF_ASC_NODE": 35.2326, "ARG_OF_PERICENTER": 155.3257, "MEAN_ANOMALY": 282.5335, "EPHEMERIS_TYPE": 0, "CLASSIFICATION_TYPE": "U", "NORAD_CAT_ID": 28051, "ELEMENT_SET_NO": 999, "REV_AT_EPOCH": 15498, "BSTAR": 3.0727e-05, "MEAN_MOTION_DOT": 5.1e-07, "MEAN_MOTION_DDOT": 0}, "tle": {"line1": "1 28051U 03046A   25355.21831088  .00000051  00000+0  30727-4 0  9998", "line2": "2 28051  98.2168  35.2326 0064712 155.3257 282.5335 14.36078022154989"}}, "geometry": {"type": "Point", "coordinates": [48.354383988946445, -57.182331052762066]}}, {"type": "Feature", "properties": {"norad_id": 28220, "name": "SHIYAN-1 (SY-1)", "group": "resource", "lat": 14.78901465109543, "lon": -120.44967632589376, "alt_km": 483.7575377993944, "timestamp": "2025-12-21T09:37:22.304831+00:00", "meta": {"OBJECT_NAME": "SHIYAN-1 (SY-1)", "OBJECT_ID": "2004-012A", "EPOCH": "2025-12-21T04:11:20.401152", "MEAN_MOTION": 15.28343782, "ECCENTRICITY": 0.0005218, "INCLINATION": 97.8926, "RA_OF_ASC_NODE": 57.2116, "ARG_OF_PERICENTER": 290.4683, "MEAN_ANOMALY": 69.5995, "EPHEMERIS_TYPE": 0, "CLASSIFICATION_TYPE": "U", "NORAD_CAT_ID": 28220, "ELEMENT_SET_NO": 999, "REV_AT_EPOCH": 18385, "BSTAR": 0.00033295, "MEAN_MOTION_DOT": 9.113e-05, "MEAN_MOTION_DDOT": 0}, "tle": {"line1": "1 28220U 04012A   25355.17454168  .00009113  00000+0  33295-3 0  9995", "line2": "2 28220  97.8926  57.2116 0005218 290.4683  69.5995 15.28343782183858"}}, "geometry": {"type": "Point", "coordinates": [-120.44967632589376, 14.78901465109543]}}, {"type": "Feature", "properties": {"norad_id": 28376, "name": "AURA", "group": "resource", "lat": -79.26815170342137, "lon": 75.126423396119, "alt_km": 698.3614305764186, "timestamp": "2025-12-21T09:37:22.304842+00:00", "meta": {"OBJECT_NAME": "AURA", "OBJECT_ID": "2004-026A", "EPOCH": "2025-12-21T03:29:26.278656", "MEAN_MOTION": 14.60963937, "ECCENTRICITY": 0.0001381, "INCLINATION": 98.3197, "RA_OF_ASC_NODE": 305.4115, "ARG_OF_PERICENTER": 92.5488, "MEAN_ANOMALY": 267.587, "EPHEMERIS_TYPE": 0, "CLASSIFICATION_TYPE": "U", "NORAD_CAT_ID": 28376, "ELEMENT_SET_NO": 999, "REV_AT_EPOCH": 14021, "BSTAR": 0.00015473, "MEAN_MOTION_DOT": 7.1e-06, "MEAN_MOTION_DDOT": 0}, "tle": {"line1": "1 28376U 04026A   25355.14544304  .00000710  00000+0  15473-3 0  9993", "line2": "2 28376  98.3197 305.4115 0001381  92.5488 267.5870 14.60963937140214"}}, "geometry": {"type": "Point", "coordinates": [75.126423396119, -79.26815170342137]}}]}